[{"OBJECT_NAME":"GLOBAL-9","OBJECT_ID":"2021-023G","EPOCH":"2026-03-09T01:47:57.771744","MEAN_MOTION":15.42430566,"ECCENTRICITY":0.00028012,"INCLINATION":44.9811,"RA_OF_ASC_NODE":91.519,"ARG_OF_PERICENTER":7.9819,"MEAN_ANOMALY":352.1113,"EPHEMERIS_TYPE":0,"CLASSIFICATION_TYPE":"U","NORAD_CAT_ID":47971,"ELEMENT_SET_NO":999,"REV_AT_EPOCH":27946,"BSTAR":0.00063584725,"MEAN_MOTION_DOT":0.00027853,"MEAN_MOTION_DDOT":0},{"OBJECT_NAME":"CZ-2C R\/B","OBJECT_ID":"2026-021B","EPOCH":"2026-03-09T21:51:23.415552","MEAN_MOTION":15.24093237,"ECCENTRICITY":0.01506252,"INCLINATION":97.65,"RA_OF_ASC_NODE":144.3935,"ARG_OF_PERICENTER":10.4871,"MEAN_ANOMALY":349.9447,"EPHEMERIS_TYPE":0,"CLASSIFICATION_TYPE":"U","NORAD_CAT_ID":67647,"ELEMENT_SET_NO":999,"REV_AT_EPOCH":573,"BSTAR":0.00038397881,"MEAN_MOTION_DOT":0.00012809,"MEAN_MOTION_DDOT":0}]
